FENGYUN 1C DEB          
1 32109U 99025CRB 17346.53684882  .00000121  00000-0  54449-4 0  9999
2 32109  98.5622 258.3594 0223269 274.9069  82.6657 14.27052474543479
